{
  "type": "FeatureCollection",
  "features": [
    {
      "type": "Feature",
      "properties": {
        "norad_id": 34726,
        "name": "COSMOS 2251 DEB",
        "group": "cosmos-2251-debris",
        "lat": 52.1459754011444,
        "lon": -12.973046453442443,
        "alt_km": 673.5238421016384,
        "timestamp": "2025-12-23T16:57:12.749818+00:00",
        "meta_object_name": "COSMOS 2251 DEB",
        "meta_object_id": "1993-036YU",
        "meta_epoch": "2025-12-23T01:53:46.277376",
        "meta_mean_motion": 14.59520604,
        "meta_eccentricity": 0.00417162,
        "meta_inclination": 74.0282,
        "meta_ra_of_asc_node": 326.5996,
        "meta_arg_of_pericenter": 114.0334,
        "meta_mean_anomaly": 246.5206,
        "meta_ephemeris_type": 0,
        "meta_classification_type": "U",
        "meta_norad_cat_id": 34726,
        "meta_element_set_no": 999,
        "meta_rev_at_epoch": 88653,
        "meta_bstar": 0.00040959858,
        "meta_mean_motion_dot": 1.939e-05,
        "meta_mean_motion_ddot": 0,
        "tle_line1": "1 34726U 93036YU  25357.07900784  .00001939  00000+0  40960-3 0  9993",
        "tle_line2": "2 34726  74.0282 326.5996 0041716 114.0334 246.5206 14.59520604886533"
      },
      "geometry": {
        "type": "Point",
        "coordinates": [
          -12.973046453442443,
          52.1459754011444
        ]
      }
    },
    {
      "type": "Feature",
      "properties": {
        "norad_id": 34728,
        "name": "COSMOS 2251 DEB",
        "group": "cosmos-2251-debris",
        "lat": 21.912739559790023,
        "lon": -122.92437699200863,
        "alt_km": 628.4314006225377,
        "timestamp": "2025-12-23T16:57:12.749828+00:00",
        "meta_object_name": "COSMOS 2251 DEB",
        "meta_object_id": "1993-036YW",
        "meta_epoch": "2025-12-20T02:20:18.568032",
        "meta_mean_motion": 14.70905998,
        "meta_eccentricity": 0.00414013,
        "meta_inclination": 74.0163,
        "meta_ra_of_asc_node": 237.4676,
        "meta_arg_of_pericenter": 33.08,
        "meta_mean_anomaly": 327.2947,
        "meta_ephemeris_type": 0,
        "meta_classification_type": "U",
        "meta_norad_cat_id": 34728,
        "meta_element_set_no": 999,
        "meta_rev_at_epoch": 88908,
        "meta_bstar": 0.00043281985,
        "meta_mean_motion_dot": 2.653e-05,
        "meta_mean_motion_ddot": 0,
        "tle_line1": "1 34728U 93036YW  25354.09743713  .00002653  00000+0  43282-3 0  9995",
        "tle_line2": "2 34728  74.0163 237.4676 0041401  33.0800 327.2947 14.70905998889085"
      },
      "geometry": {
        "type": "Point",
        "coordinates": [
          -122.92437699200863,
          21.912739559790023
        ]
      }
    },
    {
      "type": "Feature",
      "properties": {
        "norad_id": 34729,
        "name": "COSMOS 2251 DEB",
        "group": "cosmos-2251-debris",
        "lat": 26.591510202944786,
        "lon": 148.45505753760023,
        "alt_km": 614.3640987720228,
        "timestamp": "2025-12-23T16:57:12.749838+00:00",
        "meta_object_name": "COSMOS 2251 DEB",
        "meta_object_id": "1993-036YX",
        "meta_epoch": "2025-12-22T08:12:08.373312",
        "meta_mean_motion": 14.83049765,
        "meta_eccentricity": 0.00119133,
        "meta_inclination": 74.0181,
        "meta_ra_of_asc_node": 339.4061,
        "meta_arg_of_pericenter": 92.9667,
        "meta_mean_anomaly": 336.2477,
        "meta_ephemeris_type": 0,
        "meta_classification_type": "U",
        "meta_norad_cat_id": 34729,
        "meta_element_set_no": 999,
        "meta_rev_at_epoch": 88600,
        "meta_bstar": 0.0021170686,
        "meta_mean_motion_dot": 0.0001726,
        "meta_mean_motion_ddot": 0,
        "tle_line1": "1 34729U 93036YX  25356.34176358  .00017260  00000+0  21171-2 0  9993",
        "tle_line2": "2 34729  74.0181 339.4061 0011913  92.9667 336.2477 14.83049765886009"
      },
      "geometry": {
        "type": "Point",
        "coordinates": [
          148.45505753760023,
          26.591510202944786
        ]
      }
    },
    {
      "type": "Feature",
      "properties": {
        "norad_id": 34732,
        "name": "COSMOS 2251 DEB",
        "group": "cosmos-2251-debris",
        "lat": 49.29545258319242,
        "lon": 92.11723428058728,
        "alt_km": 757.7155583233543,
        "timestamp": "2025-12-23T16:57:12.749849+00:00",
        "meta_object_name": "COSMOS 2251 DEB",
        "meta_object_id": "1993-036ZA",
        "meta_epoch": "2025-12-22T16:32:23.959680",
        "meta_mean_motion": 14.47311087,
        "meta_eccentricity": 0.00401751,
        "meta_inclination": 74.0456,
        "meta_ra_of_asc_node": 74.5946,
        "meta_arg_of_pericenter": 223.757,
        "meta_mean_anomaly": 290.4905,
        "meta_ephemeris_type": 0,
        "meta_classification_type": "U",
        "meta_norad_cat_id": 34732,
        "meta_element_set_no": 999,
        "meta_rev_at_epoch": 88287,
        "meta_bstar": 0.00012395205,
        "meta_mean_motion_dot": 4.3e-06,
        "meta_mean_motion_ddot": 0,
        "tle_line1": "1 34732U 93036ZA  25356.68916620  .00000430  00000+0  12395-3 0  9998",
        "tle_line2": "2 34732  74.0456  74.5946 0040175 223.7570 290.4905 14.47311087882873"
      },
      "geometry": {
        "type": "Point",
        "coordinates": [
          92.11723428058728,
          49.29545258319242
        ]
      }
    },
    {
      "type": "Feature",
      "properties": {
        "norad_id": 34736,
        "name": "COSMOS 2251 DEB",
        "group": "cosmos-2251-debris",
        "lat": 0.4979471393276252,
        "lon": 12.172717509969637,
        "alt_km": 390.4447601891234,
        "timestamp": "2025-12-23T16:57:12.749859+00:00",
        "meta_object_name": "COSMOS 2251 DEB",
        "meta_object_id": "1993-036ZE",
        "meta_epoch": "2025-12-23T01:31:45.624864",
        "meta_mean_motion": 15.56569101,
        "meta_eccentricity": 0.00127218,
        "meta_inclination": 73.9976,
        "meta_ra_of_asc_node": 13.4571,
        "meta_arg_of_pericenter": 338.4626,
        "meta_mean_anomaly": 21.6053,
        "meta_ephemeris_type": 0,
        "meta_classification_type": "U",
        "meta_norad_cat_id": 34736,
        "meta_element_set_no": 999,
        "meta_rev_at_epoch": 88608,
        "meta_bstar": 0.0074182157,
        "meta_mean_motion_dot": 0.00567582,
        "meta_mean_motion_ddot": 0,
        "tle_line1": "1 34736U 93036ZE  25357.06372251  .00567582  00000+0  74182-2 0  9998",
        "tle_line2": "2 34736  73.9976  13.4571 0012721 338.4626  21.6053 15.56569101886088"
      },
      "geometry": {
        "type": "Point",
        "coordinates": [
          12.172717509969637,
          0.4979471393276252
        ]
      }
    },
    {
      "type": "Feature",
      "properties": {
        "norad_id": 34738,
        "name": "COSMOS 2251 DEB",
        "group": "cosmos-2251-debris",
        "lat": 43.43008785804201,
        "lon": 138.51396510848218,
        "alt_km": 759.0575950781904,
        "timestamp": "2025-12-23T16:57:12.749870+00:00",
        "meta_object_name": "COSMOS 2251 DEB",
        "meta_object_id": "1993-036ZG",
        "meta_epoch": "2025-12-23T03:45:05.386176",
        "meta_mean_motion": 14.46325174,
        "meta_eccentricity": 0.00475465,
        "meta_inclination": 74.0155,
        "meta_ra_of_asc_node": 123.7973,
        "meta_arg_of_pericenter": 268.1538,
        "meta_mean_anomaly": 154.2091,
        "meta_ephemeris_type": 0,
        "meta_classification_type": "U",
        "meta_norad_cat_id": 34738,
        "meta_element_set_no": 999,
        "meta_rev_at_epoch": 88009,
        "meta_bstar": 0.00030237653,
        "meta_mean_motion_dot": 1.071e-05,
        "meta_mean_motion_ddot": 0,
        "tle_line1": "1 34738U 93036ZG  25357.15631234  .00001071  00000+0  30238-3 0  9990",
        "tle_line2": "2 34738  74.0155 123.7973 0047546 268.1538 154.2091 14.46325174880094"
      },
      "geometry": {
        "type": "Point",
        "coordinates": [
          138.51396510848218,
          43.43008785804201
        ]
      }
    },
    {
      "type": "Feature",
      "properties": {
        "norad_id": 34750,
        "name": "COSMOS 2251 DEB",
        "group": "cosmos-2251-debris",
        "lat": 69.28985271080906,
        "lon": -130.22241455862735,
        "alt_km": 665.3668696082104,
        "timestamp": "2025-12-23T16:57:12.749879+00:00",
        "meta_object_name": "COSMOS 2251 DEB",
        "meta_object_id": "1993-036ZU",
        "meta_epoch": "2025-12-22T12:48:37.447200",
        "meta_mean_motion": 14.61412176,
        "meta_eccentricity": 0.0038418,
        "meta_inclination": 74.1065,
        "meta_ra_of_asc_node": 183.1044,
        "meta_arg_of_pericenter": 132.8514,
        "meta_mean_anomaly": 257.3018,
        "meta_ephemeris_type": 0,
        "meta_classification_type": "U",
        "meta_norad_cat_id": 34750,
        "meta_element_set_no": 999,
        "meta_rev_at_epoch": 88374,
        "meta_bstar": 0.00113959,
        "meta_mean_motion_dot": 5.675e-05,
        "meta_mean_motion_ddot": 0,
        "tle_line1": "1 34750U 93036ZU  25356.53376675  .00005675  00000+0  11396-2 0  9997",
        "tle_line2": "2 34750  74.1065 183.1044 0038418 132.8514 257.3018 14.61412176883742"
      },
      "geometry": {
        "type": "Point",
        "coordinates": [
          -130.22241455862735,
          69.28985271080906
        ]
      }
    }
  ]
}